{
"type": "FeatureCollection",
"name": "school_districts_confirmed",
"crs": { "type": "name", "properties": { "name": "urn:ogc:def:crs:OGC:1.3:CRS84" } },
"features": [
{ "type": "Feature", "properties": { "area": "越後石山", "ward": "東区", "school_district_name": "江南小学校", "source": "KSJ_A27-10_2010(official, unioned by school)" }, "geometry": { "type": "Polygon", "coordinates": [ [ [ 139.073973, 37.905498 ], [ 139.073903, 37.905665 ], [ 139.075021, 37.906041 ], [ 139.075315, 37.90543 ], [ 139.077701, 37.906309 ], [ 139.081666, 37.907825 ], [ 139.082114, 37.907288 ], [ 139.082456, 37.906866 ], [ 139.082938, 37.906324 ], [ 139.083011, 37.906266 ], [ 139.083251, 37.906053 ], [ 139.083476, 37.905844 ], [ 139.083627, 37.905727 ], [ 139.0839, 37.905505 ], [ 139.084228, 37.905255 ], [ 139.084586, 37.904943 ], [ 139.08475, 37.904782 ], [ 139.085007, 37.904568 ], [ 139.085427, 37.904245 ], [ 139.085622, 37.904078 ], [ 139.086093, 37.903697 ], [ 139.086501, 37.903382 ], [ 139.086758, 37.903175 ], [ 139.086919, 37.903035 ], [ 139.086879, 37.903016 ], [ 139.087422, 37.902573 ], [ 139.087819, 37.902249 ], [ 139.088205, 37.901944 ], [ 139.088605, 37.901616 ], [ 139.089019, 37.901278 ], [ 139.089405, 37.90099 ], [ 139.089758, 37.90069 ], [ 139.090196, 37.900357 ], [ 139.090653, 37.899998 ], [ 139.091094, 37.899644 ], [ 139.091504, 37.899316 ], [ 139.091938, 37.89897 ], [ 139.092764, 37.898296 ], [ 139.092891, 37.89838 ], [ 139.093717, 37.897751 ], [ 139.093901, 37.897604 ], [ 139.094332, 37.897244 ], [ 139.094463, 37.897136 ], [ 139.094869, 37.896802 ], [ 139.094312, 37.896345 ], [ 139.094692, 37.896017 ], [ 139.094894, 37.895363 ], [ 139.094652, 37.895284 ], [ 139.094594, 37.895238 ], [ 139.094543, 37.895235 ], [ 139.093866, 37.895199 ], [ 139.093485, 37.895171 ], [ 139.092971, 37.895145 ], [ 139.092279, 37.895097 ], [ 139.091916, 37.895276 ], [ 139.091365, 37.894685 ], [ 139.091316, 37.894633 ], [ 139.090383, 37.895039 ], [ 139.090191, 37.895122 ], [ 139.088348, 37.895889 ], [ 139.087954, 37.89619 ], [ 139.087755, 37.896343 ], [ 139.087696, 37.896388 ], [ 139.08735, 37.897041 ], [ 139.087148, 37.897318 ], [ 139.08701, 37.897508 ], [ 139.086196, 37.897671 ], [ 139.086076, 37.89766 ], [ 139.085152, 37.897577 ], [ 139.084377, 37.897508 ], [ 139.082477, 37.897155 ], [ 139.080659, 37.89721 ], [ 139.078623, 37.89759 ], [ 139.077264, 37.898751 ], [ 139.077131, 37.898865 ], [ 139.077049, 37.89893 ], [ 139.076029, 37.899741 ], [ 139.075936, 37.899815 ], [ 139.075421, 37.899897 ], [ 139.074809, 37.899707 ], [ 139.074542, 37.901502 ], [ 139.074541, 37.901511 ], [ 139.074387, 37.903046 ], [ 139.074417, 37.903636 ], [ 139.074426, 37.903814 ], [ 139.07431, 37.904697 ], [ 139.074019, 37.905388 ], [ 139.073973, 37.905498 ] ] ] } },
{ "type": "Feature", "properties": { "area": "亀田", "ward": "江南区", "school_district_name": "亀田東小学校/亀田小学校/亀田西小学校", "source": "KSJ_A27-10_2010(official, unioned by school)" }, "geometry": { "type": "Polygon", "coordinates": [ [ [ 139.120526, 37.852212 ], [ 139.117061, 37.852364 ], [ 139.114406, 37.852472 ], [ 139.113563, 37.852506 ], [ 139.113534, 37.852507 ], [ 139.112785, 37.852533 ], [ 139.111627, 37.852574 ], [ 139.111564, 37.851978 ], [ 139.111288, 37.851979 ], [ 139.111078, 37.852355 ], [ 139.110631, 37.85341 ], [ 139.110043, 37.854742 ], [ 139.10935, 37.856325 ], [ 139.110184, 37.856557 ], [ 139.109936, 37.857151 ], [ 139.109113, 37.85687 ], [ 139.108318, 37.8566 ], [ 139.108255, 37.856579 ], [ 139.10746, 37.856396 ], [ 139.107423, 37.856387 ], [ 139.10664, 37.856253 ], [ 139.106608, 37.85625 ], [ 139.105949, 37.856184 ], [ 139.104629, 37.856245 ], [ 139.1039, 37.856848 ], [ 139.103375, 37.857291 ], [ 139.103179, 37.857456 ], [ 139.103095, 37.857562 ], [ 139.102829, 37.859965 ], [ 139.102722, 37.860866 ], [ 139.10158, 37.86082 ], [ 139.101557, 37.86081 ], [ 139.101542, 37.860764 ], [ 139.101273, 37.860384 ], [ 139.100854, 37.860344 ], [ 139.100568, 37.860469 ], [ 139.100105, 37.86045 ], [ 139.100017, 37.860619 ], [ 139.100002, 37.860647 ], [ 139.099914, 37.860816 ], [ 139.099588, 37.860602 ], [ 139.099404, 37.860584 ], [ 139.099224, 37.860982 ], [ 139.099248, 37.861001 ], [ 139.099152, 37.861186 ], [ 139.099067, 37.861146 ], [ 139.098846, 37.861437 ], [ 139.098808, 37.86151 ], [ 139.098793, 37.861547 ], [ 139.098762, 37.861678 ], [ 139.098735, 37.861948 ], [ 139.098872, 37.861956 ], [ 139.099088, 37.861969 ], [ 139.099576, 37.861978 ], [ 139.099555, 37.862244 ], [ 139.099543, 37.862392 ], [ 139.099504, 37.862879 ], [ 139.099491, 37.863039 ], [ 139.100546, 37.863017 ], [ 139.100444, 37.863356 ], [ 139.100632, 37.863392 ], [ 139.101053, 37.863485 ], [ 139.101232, 37.86359 ], [ 139.101362, 37.863687 ], [ 139.101433, 37.863764 ], [ 139.100722, 37.864115 ], [ 139.100509, 37.864218 ], [ 139.100447, 37.864257 ], [ 139.100404, 37.864298 ], [ 139.098787, 37.863999 ], [ 139.098244, 37.863898 ], [ 139.098048, 37.863835 ], [ 139.097776, 37.864091 ], [ 139.097742, 37.864153 ], [ 139.09773, 37.864258 ], [ 139.097796, 37.864484 ], [ 139.097788, 37.864606 ], [ 139.097719, 37.864857 ], [ 139.097625, 37.864963 ], [ 139.097567, 37.865003 ], [ 139.09752, 37.865055 ], [ 139.097238, 37.865233 ], [ 139.097019, 37.865371 ], [ 139.09679, 37.865647 ], [ 139.096567, 37.865809 ], [ 139.096432, 37.865912 ], [ 139.096381, 37.865977 ], [ 139.096304, 37.866045 ], [ 139.096323, 37.866092 ], [ 139.096323, 37.866127 ], [ 139.096301, 37.866351 ], [ 139.096358, 37.86666 ], [ 139.096365, 37.866783 ], [ 139.096366, 37.866808 ], [ 139.096331, 37.867034 ], [ 139.096318, 37.867163 ], [ 139.096293, 37.867428 ], [ 139.096273, 37.867509 ], [ 139.09606, 37.867864 ], [ 139.09601, 37.867947 ], [ 139.095638, 37.868408 ], [ 139.094873, 37.868198 ], [ 139.094866, 37.868223 ], [ 139.094679, 37.868891 ], [ 139.093561, 37.868505 ], [ 139.09277, 37.868229 ], [ 139.092553, 37.868153 ], [ 139.091507, 37.867779 ], [ 139.091487, 37.867772 ], [ 139.090593, 37.867452 ], [ 139.089422, 37.867032 ], [ 139.089079, 37.867661 ], [ 139.08873, 37.868303 ], [ 139.08838, 37.868951 ], [ 139.088045, 37.869528 ], [ 139.088016, 37.869584 ], [ 139.087667, 37.870247 ], [ 139.087334, 37.870882 ], [ 139.086985, 37.871548 ], [ 139.086879, 37.871748 ], [ 139.086662, 37.872162 ], [ 139.085967, 37.873489 ], [ 139.085343, 37.874682 ], [ 139.085047, 37.875191 ], [ 139.084697, 37.876026 ], [ 139.084579, 37.876523 ], [ 139.084831, 37.8803 ], [ 139.083824, 37.881973 ], [ 139.082441, 37.884386 ], [ 139.082381, 37.884364 ], [ 139.082099, 37.884814 ], [ 139.082021, 37.884945 ], [ 139.082118, 37.885036 ], [ 139.082222, 37.885076 ], [ 139.082485, 37.88506 ], [ 139.08306, 37.885125 ], [ 139.083389, 37.885153 ], [ 139.083977, 37.885263 ], [ 139.084838, 37.885473 ], [ 139.084754, 37.885611 ], [ 139.085025, 37.885713 ], [ 139.085189, 37.885496 ], [ 139.085424, 37.885316 ], [ 139.085722, 37.885112 ], [ 139.085927, 37.884986 ], [ 139.086256, 37.884835 ], [ 139.086721, 37.884656 ], [ 139.087085, 37.884287 ], [ 139.087245, 37.884153 ], [ 139.087377, 37.884044 ], [ 139.087517, 37.88392 ], [ 139.087731, 37.884046 ], [ 139.08793, 37.883738 ], [ 139.090021, 37.883571 ], [ 139.092153, 37.883399 ], [ 139.092328, 37.883386 ], [ 139.093381, 37.883304 ], [ 139.094118, 37.883258 ], [ 139.094661, 37.883279 ], [ 139.095217, 37.883369 ], [ 139.095649, 37.883507 ], [ 139.095984, 37.883653 ], [ 139.096185, 37.88376 ], [ 139.09647, 37.883945 ], [ 139.096749, 37.884154 ], [ 139.096963, 37.884373 ], [ 139.09722, 37.884709 ], [ 139.097408, 37.885028 ], [ 139.097685, 37.88571 ], [ 139.09808, 37.88666 ], [ 139.098357, 37.887379 ], [ 139.09847, 37.887621 ], [ 139.098654, 37.888012 ], [ 139.098762, 37.888245 ], [ 139.098783, 37.888312 ], [ 139.098981, 37.888969 ], [ 139.098974, 37.889085 ], [ 139.09897, 37.889156 ], [ 139.098907, 37.889636 ], [ 139.098871, 37.889828 ], [ 139.098833, 37.890029 ], [ 139.098818, 37.890102 ], [ 139.098817, 37.890101 ], [ 139.098814, 37.890124 ], [ 139.098599, 37.891616 ], [ 139.099171, 37.891542 ], [ 139.100663, 37.891349 ], [ 139.100737, 37.891198 ], [ 139.100826, 37.891016 ], [ 139.101072, 37.890511 ], [ 139.101383, 37.889874 ], [ 139.101403, 37.889833 ], [ 139.101714, 37.88926 ], [ 139.101968, 37.888792 ], [ 139.102064, 37.888627 ], [ 139.102428, 37.887996 ], [ 139.102596, 37.887706 ], [ 139.102779, 37.887368 ], [ 139.103129, 37.886721 ], [ 139.103176, 37.886635 ], [ 139.103463, 37.886102 ], [ 139.103681, 37.885697 ], [ 139.103817, 37.88544 ], [ 139.104133, 37.884843 ], [ 139.104163, 37.884789 ], [ 139.104521, 37.884146 ], [ 139.104604, 37.883997 ], [ 139.104865, 37.883526 ], [ 139.105184, 37.882951 ], [ 139.105229, 37.882868 ], [ 139.10557, 37.882241 ], [ 139.105911, 37.881613 ], [ 139.105997, 37.881454 ], [ 139.106214, 37.881604 ], [ 139.105994, 37.881794 ], [ 139.106193, 37.881935 ], [ 139.106507, 37.882158 ], [ 139.106706, 37.882299 ], [ 139.107416, 37.881652 ], [ 139.107579, 37.881504 ], [ 139.107627, 37.88146 ], [ 139.107639, 37.881468 ], [ 139.108906, 37.882378 ], [ 139.110211, 37.881163 ], [ 139.110307, 37.881073 ], [ 139.110494, 37.881202 ], [ 139.111003, 37.88155 ], [ 139.11252, 37.880167 ], [ 139.113182, 37.879578 ], [ 139.113411, 37.879374 ], [ 139.114079, 37.878779 ], [ 139.114345, 37.878538 ], [ 139.11481, 37.878115 ], [ 139.115068, 37.877881 ], [ 139.114398, 37.87738 ], [ 139.114385, 37.87737 ], [ 139.115087, 37.87676 ], [ 139.11581, 37.876101 ], [ 139.115934, 37.875987 ], [ 139.116551, 37.875417 ], [ 139.115883, 37.874962 ], [ 139.115861, 37.874947 ], [ 139.116122, 37.874696 ], [ 139.11584, 37.874603 ], [ 139.11583, 37.874551 ], [ 139.116043, 37.874465 ], [ 139.116137, 37.874368 ], [ 139.116318, 37.87448 ], [ 139.116424, 37.874322 ], [ 139.116261, 37.874175 ], [ 139.116092, 37.873979 ], [ 139.116001, 37.873999 ], [ 139.115901, 37.874069 ], [ 139.115773, 37.873966 ], [ 139.115757, 37.873979 ], [ 139.115628, 37.873886 ], [ 139.11571, 37.873802 ], [ 139.115619, 37.873745 ], [ 139.115535, 37.873812 ], [ 139.115381, 37.873711 ], [ 139.115777, 37.873489 ], [ 139.115849, 37.873667 ], [ 139.115973, 37.873594 ], [ 139.115921, 37.873434 ], [ 139.116317, 37.873392 ], [ 139.116599, 37.873263 ], [ 139.116627, 37.873251 ], [ 139.11686, 37.873118 ], [ 139.117332, 37.872802 ], [ 139.116882, 37.872361 ], [ 139.116876, 37.872355 ], [ 139.116452, 37.871945 ], [ 139.1175, 37.871253 ], [ 139.117661, 37.871147 ], [ 139.11767, 37.87114 ], [ 139.118095, 37.871549 ], [ 139.118191, 37.871378 ], [ 139.118144, 37.871253 ], [ 139.118151, 37.871205 ], [ 139.118225, 37.871128 ], [ 139.11843, 37.871036 ], [ 139.118687, 37.870962 ], [ 139.118763, 37.870942 ], [ 139.118984, 37.870917 ], [ 139.119136, 37.870905 ], [ 139.11917, 37.870892 ], [ 139.119195, 37.870896 ], [ 139.119859, 37.87099 ], [ 139.120393, 37.870546 ], [ 139.120944, 37.870092 ], [ 139.120961, 37.870079 ], [ 139.122082, 37.87063 ], [ 139.121944, 37.870826 ], [ 139.122486, 37.87112 ], [ 139.122447, 37.871179 ], [ 139.122717, 37.871312 ], [ 139.123582, 37.871705 ], [ 139.124721, 37.872243 ], [ 139.124734, 37.87225 ], [ 139.124521, 37.872552 ], [ 139.125641, 37.873073 ], [ 139.127432, 37.873916 ], [ 139.128557, 37.874454 ], [ 139.128785, 37.874156 ], [ 139.129434, 37.873277 ], [ 139.130045, 37.873562 ], [ 139.130356, 37.873147 ], [ 139.131167, 37.872044 ], [ 139.131177, 37.872031 ], [ 139.131582, 37.871481 ], [ 139.131007, 37.8712 ], [ 139.131254, 37.870852 ], [ 139.131645, 37.870999 ], [ 139.131887, 37.870668 ], [ 139.131896, 37.870655 ], [ 139.132254, 37.870165 ], [ 139.131492, 37.869831 ], [ 139.133213, 37.867369 ], [ 139.133215, 37.867366 ], [ 139.134628, 37.865369 ], [ 139.132313, 37.86432 ], [ 139.132962, 37.863428 ], [ 139.133881, 37.862165 ], [ 139.133902, 37.861521 ], [ 139.133917, 37.861049 ], [ 139.133933, 37.860572 ], [ 139.133951, 37.860053 ], [ 139.133963, 37.859677 ], [ 139.133983, 37.859081 ], [ 139.133984, 37.859046 ], [ 139.134039, 37.858528 ], [ 139.133939, 37.858556 ], [ 139.133589, 37.858703 ], [ 139.133148, 37.858889 ], [ 139.132918, 37.858985 ], [ 139.132764, 37.859106 ], [ 139.132638, 37.859206 ], [ 139.13211, 37.859369 ], [ 139.131134, 37.859671 ], [ 139.131122, 37.859653 ], [ 139.131212, 37.859512 ], [ 139.131382, 37.859314 ], [ 139.131639, 37.859039 ], [ 139.131658, 37.859021 ], [ 139.131854, 37.858847 ], [ 139.132079, 37.858645 ], [ 139.132384, 37.858372 ], [ 139.132703, 37.858086 ], [ 139.132724, 37.858067 ], [ 139.132015, 37.857587 ], [ 139.131611, 37.857929 ], [ 139.13131, 37.858086 ], [ 139.13129, 37.858094 ], [ 139.13068, 37.858333 ], [ 139.130106, 37.858557 ], [ 139.130097, 37.858543 ], [ 139.129395, 37.857397 ], [ 139.128677, 37.856224 ], [ 139.128144, 37.856429 ], [ 139.127114, 37.856825 ], [ 139.126353, 37.857199 ], [ 139.126016, 37.856646 ], [ 139.125069, 37.855092 ], [ 139.124337, 37.853869 ], [ 139.123787, 37.852942 ], [ 139.123235, 37.853152 ], [ 139.123171, 37.852103 ], [ 139.121416, 37.852175 ], [ 139.120526, 37.852212 ] ] ] } },
{ "type": "Feature", "properties": { "area": "曽野木", "ward": "江南区", "school_district_name": "東曽野木小学校/曽野木小学校", "source": "KSJ_A27-10_2010(official, unioned by school)" }, "geometry": { "type": "Polygon", "coordinates": [ [ [ 139.059765, 37.852782 ], [ 139.059682, 37.852515 ], [ 139.059607, 37.852308 ], [ 139.059473, 37.851995 ], [ 139.05941, 37.851842 ], [ 139.059288, 37.851572 ], [ 139.05916, 37.851387 ], [ 139.059024, 37.851286 ], [ 139.058829, 37.851202 ], [ 139.058688, 37.851139 ], [ 139.058507, 37.851043 ], [ 139.058243, 37.850916 ], [ 139.05789, 37.850759 ], [ 139.057688, 37.850666 ], [ 139.057463, 37.850541 ], [ 139.057225, 37.850381 ], [ 139.057132, 37.850308 ], [ 139.057045, 37.850242 ], [ 139.056858, 37.850097 ], [ 139.056703, 37.850018 ], [ 139.056487, 37.849922 ], [ 139.056422, 37.849887 ], [ 139.056312, 37.849821 ], [ 139.056167, 37.849714 ], [ 139.056065, 37.849655 ], [ 139.055848, 37.849528 ], [ 139.055599, 37.84941 ], [ 139.055403, 37.849354 ], [ 139.055209, 37.849314 ], [ 139.054951, 37.849275 ], [ 139.054771, 37.84923 ], [ 139.054664, 37.849179 ], [ 139.054545, 37.849124 ], [ 139.054293, 37.849 ], [ 139.05396, 37.848891 ], [ 139.053767, 37.848831 ], [ 139.053644, 37.848804 ], [ 139.05358, 37.848807 ], [ 139.0535, 37.848827 ], [ 139.053355, 37.848879 ], [ 139.053217, 37.848933 ], [ 139.053137, 37.848957 ], [ 139.053046, 37.848937 ], [ 139.052985, 37.848896 ], [ 139.05281, 37.848757 ], [ 139.052632, 37.848586 ], [ 139.052489, 37.848434 ], [ 139.052281, 37.848231 ], [ 139.052165, 37.848139 ], [ 139.05201, 37.848046 ], [ 139.0519, 37.848021 ], [ 139.051715, 37.847984 ], [ 139.051363, 37.847915 ], [ 139.051157, 37.8479 ], [ 139.050906, 37.847917 ], [ 139.050787, 37.847938 ], [ 139.050671, 37.847974 ], [ 139.05053, 37.848023 ], [ 139.050386, 37.84806 ], [ 139.050215, 37.84815 ], [ 139.050083, 37.848259 ], [ 139.049989, 37.848378 ], [ 139.049968, 37.848428 ], [ 139.049973, 37.848487 ], [ 139.050061, 37.848585 ], [ 139.050168, 37.848806 ], [ 139.050291, 37.849131 ], [ 139.050288, 37.849263 ], [ 139.050252, 37.849519 ], [ 139.050172, 37.849885 ], [ 139.050068, 37.849885 ], [ 139.049688, 37.849747 ], [ 139.04916, 37.849559 ], [ 139.048665, 37.849371 ], [ 139.0483, 37.849244 ], [ 139.048013, 37.849154 ], [ 139.047792, 37.849066 ], [ 139.04758, 37.848978 ], [ 139.047395, 37.848915 ], [ 139.046789, 37.848734 ], [ 139.046598, 37.848665 ], [ 139.046261, 37.848516 ], [ 139.046036, 37.848421 ], [ 139.045626, 37.848244 ], [ 139.045473, 37.848208 ], [ 139.045123, 37.848198 ], [ 139.044883, 37.84819 ], [ 139.044435, 37.84823 ], [ 139.043823, 37.848279 ], [ 139.043542, 37.848308 ], [ 139.043196, 37.848361 ], [ 139.042778, 37.848433 ], [ 139.042388, 37.848483 ], [ 139.042155, 37.848496 ], [ 139.041919, 37.848517 ], [ 139.041606, 37.84853 ], [ 139.041194, 37.848564 ], [ 139.040841, 37.84858 ], [ 139.040622, 37.848598 ], [ 139.040357, 37.848637 ], [ 139.040288, 37.848646 ], [ 139.040238, 37.848561 ], [ 139.040121, 37.84857 ], [ 139.039998, 37.848591 ], [ 139.039874, 37.848598 ], [ 139.039721, 37.848621 ], [ 139.039554, 37.848639 ], [ 139.039379, 37.84866 ], [ 139.03927, 37.84867 ], [ 139.039001, 37.84874 ], [ 139.038641, 37.848866 ], [ 139.0385, 37.848761 ], [ 139.038317, 37.848652 ], [ 139.038173, 37.848562 ], [ 139.038038, 37.848508 ], [ 139.037869, 37.848416 ], [ 139.037661, 37.848296 ], [ 139.037419, 37.848147 ], [ 139.03724, 37.848023 ], [ 139.037119, 37.847943 ], [ 139.036998, 37.847814 ], [ 139.036763, 37.847592 ], [ 139.036543, 37.847365 ], [ 139.036178, 37.846984 ], [ 139.03591, 37.846642 ], [ 139.035645, 37.846363 ], [ 139.035425, 37.846127 ], [ 139.035273, 37.846002 ], [ 139.035174, 37.845907 ], [ 139.03506, 37.845783 ], [ 139.034983, 37.8457 ], [ 139.034898, 37.84559 ], [ 139.034799, 37.845403 ], [ 139.034699, 37.845251 ], [ 139.034549, 37.845098 ], [ 139.034464, 37.844974 ], [ 139.034372, 37.844845 ], [ 139.034309, 37.844634 ], [ 139.034231, 37.844409 ], [ 139.034193, 37.844262 ], [ 139.034166, 37.844124 ], [ 139.034143, 37.843898 ], [ 139.034138, 37.843763 ], [ 139.034148, 37.843621 ], [ 139.034159, 37.843503 ], [ 139.034162, 37.843442 ], [ 139.034157, 37.843254 ], [ 139.034136, 37.842948 ], [ 139.034088, 37.842625 ], [ 139.033955, 37.842329 ], [ 139.033331, 37.840939 ], [ 139.033137, 37.840674 ], [ 139.032826, 37.840252 ], [ 139.03266, 37.840031 ], [ 139.032469, 37.839792 ], [ 139.032231, 37.839562 ], [ 139.031788, 37.839045 ], [ 139.031498, 37.838738 ], [ 139.031086, 37.838394 ], [ 139.030592, 37.838093 ], [ 139.030391, 37.837976 ], [ 139.029559, 37.838781 ], [ 139.028015, 37.840396 ], [ 139.024883, 37.843583 ], [ 139.024833, 37.843697 ], [ 139.024836, 37.843792 ], [ 139.024838, 37.843861 ], [ 139.025135, 37.844553 ], [ 139.024471, 37.84539 ], [ 139.024253, 37.845682 ], [ 139.024176, 37.845876 ], [ 139.024077, 37.846294 ], [ 139.023797, 37.847099 ], [ 139.023738, 37.84752 ], [ 139.023608, 37.849533 ], [ 139.023473, 37.849938 ], [ 139.023301, 37.850453 ], [ 139.022855, 37.851335 ], [ 139.022823, 37.85155 ], [ 139.022686, 37.852028 ], [ 139.022436, 37.852781 ], [ 139.022314, 37.852983 ], [ 139.02203, 37.853268 ], [ 139.021942, 37.85336 ], [ 139.021849, 37.853458 ], [ 139.021575, 37.853944 ], [ 139.020949, 37.854572 ], [ 139.020782, 37.854799 ], [ 139.020719, 37.854843 ], [ 139.020638, 37.854843 ], [ 139.020761, 37.855222 ], [ 139.021334, 37.856983 ], [ 139.021349, 37.85705 ], [ 139.021959, 37.85967 ], [ 139.022122, 37.861434 ], [ 139.022936, 37.862167 ], [ 139.023967, 37.864637 ], [ 139.024197, 37.865764 ], [ 139.024564, 37.867568 ], [ 139.024456, 37.869848 ], [ 139.024076, 37.872019 ], [ 139.022936, 37.875439 ], [ 139.022974, 37.875455 ], [ 139.024531, 37.876102 ], [ 139.025101, 37.876075 ], [ 139.026241, 37.876347 ], [ 139.026295, 37.876564 ], [ 139.030492, 37.877491 ], [ 139.030196, 37.878234 ], [ 139.03204, 37.8787 ], [ 139.031783, 37.879378 ], [ 139.031522, 37.880041 ], [ 139.031249, 37.880734 ], [ 139.030986, 37.881399 ], [ 139.030721, 37.882067 ], [ 139.031497, 37.882256 ], [ 139.035181, 37.883173 ], [ 139.035437, 37.882474 ], [ 139.036038, 37.882813 ], [ 139.035866, 37.883352 ], [ 139.037219, 37.883705 ], [ 139.038357, 37.883937 ], [ 139.040187, 37.883927 ], [ 139.040224, 37.883883 ], [ 139.040262, 37.883859 ], [ 139.040302, 37.883859 ], [ 139.040387, 37.883904 ], [ 139.040421, 37.883905 ], [ 139.040444, 37.883896 ], [ 139.040486, 37.883857 ], [ 139.040505, 37.88383 ], [ 139.040543, 37.883777 ], [ 139.040553, 37.883769 ], [ 139.040574, 37.883755 ], [ 139.040595, 37.883749 ], [ 139.040637, 37.883748 ], [ 139.040701, 37.883757 ], [ 139.040751, 37.883759 ], [ 139.040917, 37.883692 ], [ 139.040935, 37.883686 ], [ 139.040551, 37.88219 ], [ 139.045667, 37.883226 ], [ 139.0461, 37.882148 ], [ 139.046796, 37.880307 ], [ 139.047416, 37.878618 ], [ 139.047615, 37.877871 ], [ 139.047759, 37.877318 ], [ 139.047882, 37.876843 ], [ 139.04809, 37.876072 ], [ 139.048446, 37.87599 ], [ 139.048583, 37.875935 ], [ 139.049118, 37.87567 ], [ 139.050056, 37.87523 ], [ 139.050628, 37.874979 ], [ 139.051151, 37.874757 ], [ 139.051306, 37.874814 ], [ 139.053353, 37.876156 ], [ 139.053856, 37.876467 ], [ 139.054127, 37.876577 ], [ 139.054934, 37.876836 ], [ 139.055104, 37.876901 ], [ 139.055713, 37.87717 ], [ 139.055769, 37.877188 ], [ 139.055833, 37.877203 ], [ 139.056036, 37.877311 ], [ 139.056516, 37.877637 ], [ 139.056766, 37.87783 ], [ 139.056909, 37.877972 ], [ 139.056934, 37.878007 ], [ 139.05694, 37.878057 ], [ 139.056938, 37.878078 ], [ 139.056794, 37.878274 ], [ 139.056967, 37.878446 ], [ 139.057024, 37.878486 ], [ 139.057573, 37.878773 ], [ 139.057773, 37.878804 ], [ 139.057912, 37.878789 ], [ 139.058238, 37.878528 ], [ 139.058434, 37.878312 ], [ 139.058748, 37.877924 ], [ 139.059396, 37.87718 ], [ 139.059509, 37.87708 ], [ 139.060035, 37.876646 ], [ 139.060531, 37.87625 ], [ 139.060729, 37.876071 ], [ 139.060786, 37.875942 ], [ 139.060985, 37.875486 ], [ 139.061215, 37.874826 ], [ 139.061595, 37.874025 ], [ 139.061633, 37.873826 ], [ 139.061752, 37.873563 ], [ 139.061814, 37.873411 ], [ 139.061908, 37.873262 ], [ 139.061995, 37.873168 ], [ 139.062135, 37.873056 ], [ 139.062218, 37.873013 ], [ 139.062488, 37.872919 ], [ 139.062723, 37.872851 ], [ 139.062886, 37.872784 ], [ 139.063118, 37.872668 ], [ 139.063345, 37.872583 ], [ 139.063619, 37.872527 ], [ 139.063829, 37.872467 ], [ 139.063951, 37.872385 ], [ 139.064098, 37.872294 ], [ 139.064212, 37.872224 ], [ 139.064291, 37.87213 ], [ 139.064378, 37.872033 ], [ 139.06448, 37.871903 ], [ 139.064555, 37.871785 ], [ 139.064646, 37.871688 ], [ 139.064774, 37.871554 ], [ 139.064946, 37.871398 ], [ 139.065033, 37.871323 ], [ 139.065157, 37.87115 ], [ 139.065255, 37.870987 ], [ 139.065307, 37.870845 ], [ 139.065309, 37.870642 ], [ 139.06527, 37.870474 ], [ 139.065225, 37.870285 ], [ 139.065174, 37.870053 ], [ 139.065149, 37.869863 ], [ 139.065151, 37.869628 ], [ 139.065162, 37.869541 ], [ 139.06516, 37.869524 ], [ 139.065146, 37.869402 ], [ 139.065071, 37.86914 ], [ 139.065008, 37.869003 ], [ 139.064911, 37.868853 ], [ 139.064823, 37.868717 ], [ 139.064761, 37.868672 ], [ 139.064593, 37.868567 ], [ 139.064448, 37.868481 ], [ 139.064287, 37.868349 ], [ 139.06413, 37.868214 ], [ 139.064072, 37.868133 ], [ 139.064062, 37.868074 ], [ 139.064077, 37.867989 ], [ 139.064128, 37.867942 ], [ 139.064192, 37.867906 ], [ 139.064589, 37.868015 ], [ 139.064955, 37.868134 ], [ 139.065081, 37.8682 ], [ 139.065345, 37.868398 ], [ 139.065709, 37.868689 ], [ 139.065853, 37.868552 ], [ 139.065948, 37.86851 ], [ 139.06616, 37.868406 ], [ 139.066283, 37.868346 ], [ 139.066382, 37.86831 ], [ 139.066446, 37.868243 ], [ 139.066549, 37.868128 ], [ 139.066601, 37.868071 ], [ 139.066687, 37.867907 ], [ 139.066766, 37.867768 ], [ 139.066815, 37.86765 ], [ 139.066896, 37.867408 ], [ 139.066906, 37.867252 ], [ 139.066833, 37.867077 ], [ 139.066748, 37.866899 ], [ 139.066675, 37.866621 ], [ 139.066613, 37.866392 ], [ 139.066554, 37.866247 ], [ 139.066438, 37.866022 ], [ 139.06623, 37.865679 ], [ 139.066128, 37.865515 ], [ 139.066082, 37.865427 ], [ 139.066035, 37.865292 ], [ 139.065977, 37.865145 ], [ 139.065907, 37.864997 ], [ 139.065867, 37.864768 ], [ 139.065865, 37.864661 ], [ 139.065888, 37.864468 ], [ 139.065898, 37.864389 ], [ 139.065977, 37.863989 ], [ 139.06615, 37.863084 ], [ 139.066063, 37.863059 ], [ 139.065831, 37.862995 ], [ 139.065751, 37.862535 ], [ 139.065702, 37.862496 ], [ 139.064862, 37.861835 ], [ 139.064692, 37.861695 ], [ 139.064738, 37.86134 ], [ 139.064777, 37.861142 ], [ 139.064881, 37.860907 ], [ 139.064742, 37.860686 ], [ 139.064544, 37.860492 ], [ 139.064201, 37.860293 ], [ 139.06404, 37.860192 ], [ 139.06396, 37.860112 ], [ 139.063901, 37.859922 ], [ 139.063815, 37.859694 ], [ 139.063652, 37.859458 ], [ 139.063374, 37.859157 ], [ 139.062977, 37.858737 ], [ 139.062385, 37.858158 ], [ 139.062371, 37.858142 ], [ 139.062536, 37.85804 ], [ 139.062499, 37.858001 ], [ 139.06201, 37.857501 ], [ 139.061797, 37.857047 ], [ 139.061666, 37.85672 ], [ 139.061581, 37.856483 ], [ 139.06165, 37.856452 ], [ 139.061776, 37.856526 ], [ 139.062099, 37.856707 ], [ 139.062254, 37.856617 ], [ 139.062755, 37.85687 ], [ 139.063096, 37.856452 ], [ 139.062309, 37.856061 ], [ 139.061916, 37.855858 ], [ 139.061585, 37.855681 ], [ 139.061936, 37.855254 ], [ 139.06125, 37.854894 ], [ 139.061085, 37.855102 ], [ 139.060909, 37.855014 ], [ 139.060471, 37.854791 ], [ 139.060044, 37.854568 ], [ 139.059607, 37.854346 ], [ 139.059688, 37.854238 ], [ 139.059133, 37.853934 ], [ 139.059765, 37.852782 ] ] ] } },
{ "type": "Feature", "properties": { "area": "新津", "ward": "秋葉区", "school_district_name": "新津第三小学校/新津第二小学校/新津第一小学校", "source": "KSJ_A27-10_2010(official, unioned by school)" }, "geometry": { "type": "Polygon", "coordinates": [ [ [ 139.12094, 37.785318 ], [ 139.120681, 37.785713 ], [ 139.120456, 37.785564 ], [ 139.120292, 37.785751 ], [ 139.120105, 37.785907 ], [ 139.119958, 37.786047 ], [ 139.119816, 37.786306 ], [ 139.119877, 37.786551 ], [ 139.119553, 37.787132 ], [ 139.119271, 37.787254 ], [ 139.118906, 37.787124 ], [ 139.118835, 37.787153 ], [ 139.118598, 37.78725 ], [ 139.117695, 37.786978 ], [ 139.116327, 37.786566 ], [ 139.116273, 37.78668 ], [ 139.116149, 37.78694 ], [ 139.115651, 37.787987 ], [ 139.112082, 37.787581 ], [ 139.111938, 37.78842 ], [ 139.110398, 37.7881 ], [ 139.110509, 37.787405 ], [ 139.096415, 37.785866 ], [ 139.095059, 37.785711 ], [ 139.094946, 37.785672 ], [ 139.094586, 37.785513 ], [ 139.098441, 37.788486 ], [ 139.096619, 37.789502 ], [ 139.097993, 37.791078 ], [ 139.099383, 37.790312 ], [ 139.100218, 37.791264 ], [ 139.100927, 37.79208 ], [ 139.101749, 37.793022 ], [ 139.102541, 37.79393 ], [ 139.102212, 37.794148 ], [ 139.101996, 37.794215 ], [ 139.102608, 37.794932 ], [ 139.102723, 37.794925 ], [ 139.102819, 37.795305 ], [ 139.103395, 37.795354 ], [ 139.103969, 37.795264 ], [ 139.104024, 37.795255 ], [ 139.104483, 37.795362 ], [ 139.104577, 37.795407 ], [ 139.104621, 37.795468 ], [ 139.104663, 37.795646 ], [ 139.104723, 37.795858 ], [ 139.104775, 37.796283 ], [ 139.105082, 37.796254 ], [ 139.105075, 37.796469 ], [ 139.105175, 37.796443 ], [ 139.105293, 37.796389 ], [ 139.105339, 37.796776 ], [ 139.105538, 37.796766 ], [ 139.105512, 37.796336 ], [ 139.105606, 37.796313 ], [ 139.105677, 37.796296 ], [ 139.105802, 37.796291 ], [ 139.10576, 37.796454 ], [ 139.105761, 37.796544 ], [ 139.105805, 37.796684 ], [ 139.105875, 37.796905 ], [ 139.105734, 37.796969 ], [ 139.105755, 37.797161 ], [ 139.10596, 37.797201 ], [ 139.105976, 37.797259 ], [ 139.106057, 37.797412 ], [ 139.10621, 37.7976 ], [ 139.105825, 37.798013 ], [ 139.104856, 37.797958 ], [ 139.104801, 37.79811 ], [ 139.104782, 37.798199 ], [ 139.104933, 37.798193 ], [ 139.104937, 37.798403 ], [ 139.104992, 37.798473 ], [ 139.104936, 37.798505 ], [ 139.104893, 37.798491 ], [ 139.104793, 37.798481 ], [ 139.104805, 37.799439 ], [ 139.104552, 37.799817 ], [ 139.104158, 37.800391 ], [ 139.103671, 37.801161 ], [ 139.103311, 37.801037 ], [ 139.103095, 37.801238 ], [ 139.102246, 37.802117 ], [ 139.101747, 37.802627 ], [ 139.103145, 37.803488 ], [ 139.10213, 37.804522 ], [ 139.103497, 37.805365 ], [ 139.101795, 37.807118 ], [ 139.101197, 37.807798 ], [ 139.098349, 37.810778 ], [ 139.096116, 37.810874 ], [ 139.096255, 37.812919 ], [ 139.096406, 37.814966 ], [ 139.100054, 37.814814 ], [ 139.09979, 37.816203 ], [ 139.100021, 37.816196 ], [ 139.103139, 37.816069 ], [ 139.104696, 37.816005 ], [ 139.104652, 37.81536 ], [ 139.106508, 37.815279 ], [ 139.106661, 37.8173 ], [ 139.105938, 37.817335 ], [ 139.106, 37.818128 ], [ 139.107667, 37.818065 ], [ 139.107986, 37.81806 ], [ 139.107977, 37.817955 ], [ 139.107768, 37.815168 ], [ 139.107721, 37.814498 ], [ 139.107622, 37.813114 ], [ 139.108711, 37.813067 ], [ 139.109006, 37.813048 ], [ 139.109366, 37.813042 ], [ 139.109469, 37.813031 ], [ 139.109997, 37.812906 ], [ 139.110503, 37.812769 ], [ 139.110832, 37.812687 ], [ 139.111276, 37.812749 ], [ 139.111694, 37.812801 ], [ 139.111671, 37.812946 ], [ 139.111641, 37.81368 ], [ 139.111705, 37.813645 ], [ 139.111785, 37.813612 ], [ 139.11187, 37.813601 ], [ 139.112047, 37.813602 ], [ 139.112184, 37.813612 ], [ 139.112218, 37.813154 ], [ 139.112539, 37.81315 ], [ 139.11254, 37.813162 ], [ 139.11259, 37.813253 ], [ 139.112673, 37.813374 ], [ 139.112734, 37.813455 ], [ 139.112769, 37.813571 ], [ 139.112791, 37.813634 ], [ 139.112877, 37.813776 ], [ 139.11286, 37.81429 ], [ 139.112555, 37.814256 ], [ 139.112164, 37.814195 ], [ 139.111935, 37.814165 ], [ 139.111959, 37.814489 ], [ 139.112623, 37.81447 ], [ 139.112988, 37.814711 ], [ 139.113003, 37.81497 ], [ 139.113216, 37.81496 ], [ 139.113221, 37.815177 ], [ 139.113427, 37.815168 ], [ 139.113426, 37.814954 ], [ 139.113778, 37.814935 ], [ 139.114292, 37.81489 ], [ 139.114306, 37.815364 ], [ 139.114756, 37.815398 ], [ 139.115333, 37.815528 ], [ 139.115456, 37.815332 ], [ 139.116144, 37.815459 ], [ 139.116718, 37.814226 ], [ 139.116743, 37.81426 ], [ 139.116826, 37.814283 ], [ 139.116782, 37.814373 ], [ 139.116891, 37.81441 ], [ 139.116948, 37.814447 ], [ 139.116997, 37.814528 ], [ 139.117067, 37.814647 ], [ 139.117171, 37.814817 ], [ 139.117234, 37.814908 ], [ 139.117277, 37.814954 ], [ 139.117318, 37.814973 ], [ 139.117422, 37.814998 ], [ 139.117444, 37.815003 ], [ 139.117606, 37.815042 ], [ 139.118066, 37.815189 ], [ 139.118509, 37.815327 ], [ 139.118608, 37.815358 ], [ 139.119097, 37.815507 ], [ 139.119322, 37.81558 ], [ 139.119413, 37.815335 ], [ 139.11957, 37.815349 ], [ 139.119734, 37.815371 ], [ 139.119861, 37.815391 ], [ 139.119905, 37.815399 ], [ 139.119889, 37.815529 ], [ 139.120048, 37.815565 ], [ 139.12008, 37.815432 ], [ 139.120104, 37.815437 ], [ 139.120402, 37.815494 ], [ 139.120362, 37.81562 ], [ 139.120717, 37.815684 ], [ 139.122165, 37.815936 ], [ 139.122193, 37.815888 ], [ 139.122526, 37.815429 ], [ 139.12297, 37.814902 ], [ 139.123701, 37.814115 ], [ 139.124366, 37.813456 ], [ 139.1246, 37.813205 ], [ 139.124814, 37.812977 ], [ 139.125046, 37.812729 ], [ 139.125401, 37.812351 ], [ 139.126372, 37.811177 ], [ 139.126962, 37.810588 ], [ 139.127217, 37.810334 ], [ 139.127746, 37.809807 ], [ 139.128047, 37.8094 ], [ 139.128168, 37.80918 ], [ 139.128308, 37.808894 ], [ 139.128382, 37.808721 ], [ 139.128087, 37.808721 ], [ 139.128114, 37.808597 ], [ 139.128114, 37.808467 ], [ 139.128344, 37.808454 ], [ 139.128938, 37.808421 ], [ 139.133886, 37.808142 ], [ 139.134698, 37.8074 ], [ 139.133277, 37.805149 ], [ 139.132882, 37.804497 ], [ 139.134577, 37.802945 ], [ 139.13603, 37.801826 ], [ 139.136277, 37.801637 ], [ 139.137789, 37.800472 ], [ 139.137856, 37.800421 ], [ 139.139094, 37.799468 ], [ 139.139125, 37.799444 ], [ 139.140607, 37.798303 ], [ 139.14136, 37.797723 ], [ 139.142109, 37.797147 ], [ 139.143554, 37.796034 ], [ 139.143712, 37.795912 ], [ 139.144951, 37.794949 ], [ 139.145802, 37.794287 ], [ 139.147129, 37.794986 ], [ 139.147487, 37.795175 ], [ 139.148158, 37.795521 ], [ 139.14869, 37.795795 ], [ 139.148713, 37.795766 ], [ 139.149274, 37.796058 ], [ 139.149801, 37.796329 ], [ 139.150314, 37.795717 ], [ 139.150759, 37.795168 ], [ 139.150899, 37.795002 ], [ 139.150917, 37.794959 ], [ 139.150924, 37.79493 ], [ 139.151108, 37.794802 ], [ 139.151187, 37.794692 ], [ 139.152485, 37.793551 ], [ 139.153347, 37.794153 ], [ 139.153355, 37.79413 ], [ 139.15346, 37.793064 ], [ 139.155193, 37.792155 ], [ 139.156776, 37.792255 ], [ 139.156902, 37.79074 ], [ 139.158814, 37.79084 ], [ 139.158864, 37.790328 ], [ 139.158957, 37.789325 ], [ 139.160448, 37.789397 ], [ 139.162312, 37.789518 ], [ 139.162873, 37.789048 ], [ 139.163424, 37.788571 ], [ 139.163288, 37.788412 ], [ 139.163097, 37.788161 ], [ 139.16287, 37.787776 ], [ 139.162498, 37.787601 ], [ 139.161582, 37.787128 ], [ 139.161147, 37.786906 ], [ 139.161036, 37.786838 ], [ 139.160985, 37.786804 ], [ 139.160324, 37.78633 ], [ 139.159741, 37.785899 ], [ 139.159416, 37.785658 ], [ 139.15929, 37.785541 ], [ 139.159185, 37.785465 ], [ 139.159115, 37.78542 ], [ 139.158945, 37.785327 ], [ 139.159277, 37.784867 ], [ 139.160065, 37.783784 ], [ 139.160791, 37.783164 ], [ 139.161115, 37.78283 ], [ 139.1611, 37.782823 ], [ 139.161058, 37.782815 ], [ 139.160828, 37.782778 ], [ 139.16047, 37.782723 ], [ 139.160433, 37.782714 ], [ 139.160181, 37.782561 ], [ 139.159983, 37.78244 ], [ 139.159881, 37.782371 ], [ 139.159756, 37.782271 ], [ 139.159612, 37.78214 ], [ 139.159502, 37.782031 ], [ 139.159447, 37.78197 ], [ 139.159422, 37.781938 ], [ 139.159385, 37.781882 ], [ 139.159268, 37.781698 ], [ 139.159107, 37.781438 ], [ 139.158933, 37.781151 ], [ 139.158895, 37.781096 ], [ 139.158867, 37.781062 ], [ 139.158848, 37.781041 ], [ 139.158789, 37.780992 ], [ 139.158683, 37.780911 ], [ 139.158592, 37.780839 ], [ 139.158547, 37.780873 ], [ 139.158478, 37.78092 ], [ 139.158412, 37.780954 ], [ 139.158318, 37.780978 ], [ 139.158234, 37.780988 ], [ 139.158163, 37.780986 ], [ 139.158046, 37.780967 ], [ 139.157598, 37.780862 ], [ 139.157271, 37.780799 ], [ 139.157121, 37.780772 ], [ 139.157079, 37.780778 ], [ 139.156903, 37.780807 ], [ 139.156833, 37.780805 ], [ 139.156677, 37.780778 ], [ 139.156915, 37.779913 ], [ 139.156875, 37.779881 ], [ 139.156828, 37.779855 ], [ 139.156792, 37.779844 ], [ 139.15675, 37.779838 ], [ 139.156649, 37.77984 ], [ 139.156147, 37.779878 ], [ 139.155683, 37.779909 ], [ 139.155235, 37.779952 ], [ 139.155073, 37.779977 ], [ 139.154839, 37.780021 ], [ 139.154596, 37.780069 ], [ 139.154441, 37.780098 ], [ 139.154312, 37.780117 ], [ 139.154144, 37.780137 ], [ 139.153864, 37.78016 ], [ 139.153693, 37.780179 ], [ 139.153611, 37.78019 ], [ 139.153782, 37.780117 ], [ 139.153997, 37.780005 ], [ 139.154137, 37.779876 ], [ 139.154213, 37.779734 ], [ 139.154254, 37.779517 ], [ 139.154225, 37.779342 ], [ 139.154118, 37.778891 ], [ 139.15407, 37.778667 ], [ 139.154059, 37.778489 ], [ 139.154055, 37.77813 ], [ 139.154089, 37.777917 ], [ 139.154185, 37.777646 ], [ 139.154315, 37.77738 ], [ 139.154508, 37.777094 ], [ 139.154631, 37.776954 ], [ 139.154854, 37.776733 ], [ 139.154959, 37.776655 ], [ 139.154807, 37.776607 ], [ 139.154671, 37.776543 ], [ 139.154585, 37.776402 ], [ 139.153853, 37.776112 ], [ 139.153531, 37.77662 ], [ 139.152046, 37.776666 ], [ 139.151819, 37.776452 ], [ 139.151314, 37.776314 ], [ 139.151256, 37.776221 ], [ 139.150918, 37.776077 ], [ 139.150579, 37.775916 ], [ 139.150306, 37.775775 ], [ 139.150147, 37.775671 ], [ 139.149986, 37.775513 ], [ 139.149893, 37.775388 ], [ 139.149665, 37.775064 ], [ 139.149562, 37.774959 ], [ 139.149413, 37.774834 ], [ 139.149222, 37.774742 ], [ 139.149109, 37.774718 ], [ 139.148961, 37.774731 ], [ 139.148754, 37.774835 ], [ 139.147971, 37.775321 ], [ 139.147523, 37.775514 ], [ 139.147239, 37.775623 ], [ 139.146948, 37.775698 ], [ 139.14681, 37.775738 ], [ 139.146744, 37.775779 ], [ 139.146631, 37.775958 ], [ 139.146542, 37.776081 ], [ 139.14646, 37.776177 ], [ 139.146387, 37.776273 ], [ 139.146242, 37.776449 ], [ 139.146123, 37.776588 ], [ 139.145994, 37.776724 ], [ 139.145918, 37.776784 ], [ 139.145745, 37.776862 ], [ 139.145563, 37.776932 ], [ 139.145414, 37.77699 ], [ 139.14532, 37.77706 ], [ 139.145211, 37.777176 ], [ 139.145153, 37.77729 ], [ 139.145072, 37.777415 ], [ 139.144941, 37.777606 ], [ 139.144909, 37.777692 ], [ 139.144891, 37.777835 ], [ 139.14489, 37.778083 ], [ 139.144786, 37.778086 ], [ 139.144656, 37.778116 ], [ 139.144554, 37.778151 ], [ 139.144502, 37.778195 ], [ 139.143888, 37.778315 ], [ 139.143418, 37.778324 ], [ 139.143355, 37.778308 ], [ 139.143315, 37.778281 ], [ 139.143309, 37.778219 ], [ 139.143334, 37.77812 ], [ 139.143363, 37.77805 ], [ 139.143394, 37.777947 ], [ 139.143371, 37.777875 ], [ 139.143289, 37.77773 ], [ 139.143178, 37.777588 ], [ 139.143117, 37.777489 ], [ 139.143232, 37.777245 ], [ 139.143142, 37.776611 ], [ 139.143109, 37.77631 ], [ 139.143108, 37.776128 ], [ 139.143073, 37.775555 ], [ 139.143149, 37.774999 ], [ 139.143276, 37.774684 ], [ 139.143159, 37.774634 ], [ 139.142818, 37.77438 ], [ 139.14259, 37.774086 ], [ 139.142499, 37.773704 ], [ 139.142496, 37.77332 ], [ 139.142343, 37.773048 ], [ 139.142195, 37.772899 ], [ 139.142191, 37.772893 ], [ 139.142147, 37.772852 ], [ 139.142007, 37.77271 ], [ 139.141741, 37.772429 ], [ 139.141638, 37.772288 ], [ 139.141665, 37.772111 ], [ 139.141851, 37.771888 ], [ 139.141872, 37.771871 ], [ 139.141904, 37.771845 ], [ 139.142078, 37.771722 ], [ 139.142124, 37.771658 ], [ 139.142307, 37.771502 ], [ 139.142358, 37.771346 ], [ 139.142282, 37.771186 ], [ 139.142058, 37.771028 ], [ 139.141869, 37.770976 ], [ 139.141684, 37.770966 ], [ 139.14153, 37.770908 ], [ 139.141365, 37.770805 ], [ 139.141277, 37.770746 ], [ 139.141249, 37.77075 ], [ 139.141187, 37.770707 ], [ 139.141108, 37.770652 ], [ 139.141079, 37.770637 ], [ 139.140999, 37.770583 ], [ 139.140912, 37.770554 ], [ 139.140852, 37.770525 ], [ 139.140687, 37.770494 ], [ 139.14051, 37.770492 ], [ 139.140337, 37.770489 ], [ 139.140311, 37.770455 ], [ 139.14018, 37.770435 ], [ 139.140123, 37.770416 ], [ 139.140003, 37.77031 ], [ 139.139798, 37.770117 ], [ 139.139408, 37.769859 ], [ 139.138912, 37.76971 ], [ 139.138523, 37.769661 ], [ 139.13814, 37.769709 ], [ 139.138035, 37.769751 ], [ 139.137912, 37.769742 ], [ 139.137886, 37.76981 ], [ 139.137723, 37.769813 ], [ 139.137441, 37.770047 ], [ 139.13737, 37.770221 ], [ 139.137229, 37.770242 ], [ 139.137028, 37.770517 ], [ 139.136898, 37.770752 ], [ 139.136892, 37.770964 ], [ 139.136794, 37.771002 ], [ 139.13667, 37.771218 ], [ 139.136611, 37.77146 ], [ 139.136514, 37.771574 ], [ 139.136296, 37.771651 ], [ 139.136175, 37.771724 ], [ 139.136123, 37.771748 ], [ 139.135983, 37.771828 ], [ 139.13599, 37.77186 ], [ 139.135914, 37.771869 ], [ 139.135816, 37.771882 ], [ 139.135594, 37.771863 ], [ 139.135446, 37.771873 ], [ 139.135398, 37.771857 ], [ 139.135319, 37.771882 ], [ 139.135284, 37.771878 ], [ 139.135117, 37.771855 ], [ 139.13484, 37.771717 ], [ 139.134491, 37.771489 ], [ 139.134429, 37.771449 ], [ 139.134403, 37.771423 ], [ 139.13419, 37.771286 ], [ 139.13403, 37.771262 ], [ 139.133994, 37.771245 ], [ 139.133779, 37.771259 ], [ 139.133612, 37.771317 ], [ 139.133467, 37.771403 ], [ 139.133319, 37.77149 ], [ 139.133301, 37.77147 ], [ 139.133096, 37.771608 ], [ 139.132893, 37.771792 ], [ 139.132792, 37.771864 ], [ 139.132675, 37.771937 ], [ 139.132452, 37.772026 ], [ 139.132307, 37.77201 ], [ 139.132305, 37.77201 ], [ 139.132183, 37.771954 ], [ 139.132179, 37.771953 ], [ 139.132072, 37.771905 ], [ 139.131787, 37.771742 ], [ 139.131785, 37.771738 ], [ 139.131738, 37.771714 ], [ 139.131719, 37.771703 ], [ 139.131715, 37.771702 ], [ 139.131583, 37.771681 ], [ 139.131511, 37.771675 ], [ 139.131446, 37.771709 ], [ 139.131438, 37.771711 ], [ 139.131433, 37.771717 ], [ 139.13138, 37.771745 ], [ 139.131335, 37.771809 ], [ 139.131291, 37.77185 ], [ 139.131285, 37.771931 ], [ 139.131271, 37.771976 ], [ 139.13127, 37.772133 ], [ 139.131331, 37.772268 ], [ 139.131285, 37.772269 ], [ 139.13128, 37.772418 ], [ 139.131287, 37.772432 ], [ 139.131266, 37.772442 ], [ 139.131177, 37.772481 ], [ 139.130883, 37.772577 ], [ 139.130651, 37.77263 ], [ 139.130555, 37.772724 ], [ 139.130551, 37.772729 ], [ 139.130469, 37.772792 ], [ 139.130357, 37.772931 ], [ 139.130285, 37.773046 ], [ 139.130191, 37.773164 ], [ 139.130117, 37.773276 ], [ 139.129974, 37.773395 ], [ 139.129718, 37.773625 ], [ 139.129529, 37.77391 ], [ 139.129501, 37.773994 ], [ 139.129498, 37.773997 ], [ 139.129426, 37.774215 ], [ 139.129415, 37.774248 ], [ 139.129289, 37.774341 ], [ 139.129465, 37.774433 ], [ 139.129568, 37.774559 ], [ 139.129606, 37.774821 ], [ 139.129569, 37.775133 ], [ 139.129418, 37.775663 ], [ 139.129289, 37.776084 ], [ 139.129015, 37.776328 ], [ 139.128885, 37.776544 ], [ 139.128813, 37.776971 ], [ 139.12879, 37.777061 ], [ 139.128766, 37.777114 ], [ 139.128724, 37.777138 ], [ 139.12837, 37.777169 ], [ 139.128286, 37.777188 ], [ 139.128197, 37.777327 ], [ 139.128025, 37.77758 ], [ 139.127833, 37.777563 ], [ 139.127653, 37.777563 ], [ 139.127498, 37.777769 ], [ 139.12706, 37.778159 ], [ 139.126864, 37.778268 ], [ 139.126766, 37.778322 ], [ 139.126771, 37.778519 ], [ 139.126779, 37.778782 ], [ 139.126902, 37.779233 ], [ 139.126943, 37.779374 ], [ 139.127088, 37.779649 ], [ 139.127167, 37.77979 ], [ 139.125637, 37.780892 ], [ 139.12561, 37.780946 ], [ 139.125528, 37.781109 ], [ 139.125459, 37.781301 ], [ 139.125385, 37.781497 ], [ 139.125324, 37.78163 ], [ 139.125277, 37.781699 ], [ 139.125156, 37.78183 ], [ 139.125031, 37.781983 ], [ 139.12498, 37.782058 ], [ 139.12488, 37.782206 ], [ 139.124853, 37.782266 ], [ 139.124819, 37.782389 ], [ 139.124787, 37.782556 ], [ 139.124767, 37.782616 ], [ 139.124714, 37.782718 ], [ 139.124632, 37.782855 ], [ 139.124559, 37.783003 ], [ 139.124483, 37.783111 ], [ 139.124422, 37.7832 ], [ 139.124403, 37.783238 ], [ 139.124375, 37.783291 ], [ 139.124365, 37.783305 ], [ 139.124331, 37.783355 ], [ 139.124265, 37.78342 ], [ 139.123916, 37.783717 ], [ 139.123776, 37.783837 ], [ 139.123788, 37.783869 ], [ 139.123722, 37.783908 ], [ 139.12367, 37.783946 ], [ 139.123611, 37.784004 ], [ 139.123576, 37.784056 ], [ 139.123563, 37.784142 ], [ 139.123417, 37.784268 ], [ 139.12331, 37.784382 ], [ 139.123098, 37.78457 ], [ 139.123079, 37.784612 ], [ 139.123102, 37.784661 ], [ 139.122665, 37.784861 ], [ 139.122836, 37.785164 ], [ 139.122982, 37.785402 ], [ 139.123083, 37.785567 ], [ 139.122594, 37.785449 ], [ 139.122555, 37.78544 ], [ 139.122518, 37.785539 ], [ 139.122458, 37.785702 ], [ 139.122387, 37.785694 ], [ 139.122185, 37.78567 ], [ 139.122158, 37.785965 ], [ 139.122147, 37.786083 ], [ 139.122055, 37.786086 ], [ 139.121304, 37.786092 ], [ 139.121298, 37.785962 ], [ 139.121299, 37.78556 ], [ 139.12094, 37.785318 ] ] ] } },
{ "type": "Feature", "properties": { "area": "荻川", "ward": "秋葉区", "school_district_name": "荻川小学校(KSJ非収録のためGSIジオコーディング9地点の凸包で近似)", "source": "APPROXIMATED_convex_hull_of_geocoded_chome_centroids(NOT official boundary)" }, "geometry": { "type": "Polygon", "coordinates": [ [ [ 139.072878585593998, 37.816406462938595 ], [ 139.072596557369991, 37.816338646008759 ], [ 139.072309297965035, 37.816298383254455 ], [ 139.07201949290527, 37.816286051083495 ], [ 139.071729851515528, 37.816301764786665 ], [ 139.071443081590616, 37.816345377459953 ], [ 139.071161864080551, 37.816416481377907 ], [ 139.070888828027108, 37.816514411805365 ], [ 139.07062652598529, 37.816638253211906 ], [ 139.070377410160233, 37.816786847831004 ], [ 139.070143809481976, 37.816958806483662 ], [ 139.069927907832749, 37.817152521565603 ], [ 139.069731723630412, 37.817366182076384 ], [ 139.069557090958682, 37.81759779055006 ], [ 139.069405642420691, 37.817845181729062 ], [ 139.069278793876066, 37.818106042806725 ], [ 139.069177731204462, 37.818377935049199 ], [ 139.069103399218932, 37.818658316594671 ], [ 139.069056492833141, 37.818944566216651 ], [ 139.069037450564792, 37.819234007829294 ], [ 139.069046450435906, 37.819523935505501 ], [ 139.069083408308643, 37.819811638774084 ], [ 139.06914797867185, 37.820094427959361 ], [ 139.069239557871128, 37.820369659326346 ], [ 139.069357289752332, 37.820634759796462 ], [ 139.06950007366558, 37.820887251002709 ], [ 139.069666574754876, 37.821124772459363 ], [ 139.079523574754887, 37.833831772459362 ], [ 139.079706453825366, 37.834045959262589 ], [ 139.079908612649632, 37.834242052482473 ], [ 139.080128269517871, 37.834418323867943 ], [ 139.080363488502826, 37.834573219866009 ], [ 139.080612196521798, 37.83470537531386 ], [ 139.080872201607633, 37.834813625470595 ], [ 139.081141212227465, 37.834897016282582 ], [ 139.081416857478843, 37.834954812791935 ], [ 139.102397857478849, 37.838334812791935 ], [ 139.102659575372058, 37.838365255375074 ], [ 139.102922954979192, 37.838372616695509 ], [ 139.103185964677579, 37.838356839970459 ], [ 139.103446575697859, 37.838318046896333 ], [ 139.110541575697852, 37.836941046896335 ], [ 139.11083126150001, 37.836869713386648 ], [ 139.111112429776796, 37.836769960022259 ], [ 139.111382299888476, 37.836642773323312 ], [ 139.111638202929612, 37.836489411114435 ], [ 139.111877608123393, 37.836311390085406 ], [ 139.112098147849935, 37.836110470791681 ], [ 139.11229764106119, 37.835888640243219 ], [ 139.112474114850613, 37.83564809225377 ], [ 139.112625823964265, 37.835391205744969 ], [ 139.112751268060862, 37.835120521219721 ], [ 139.112849206549384, 37.83483871563773 ], [ 139.11382620654939, 37.831500715637731 ], [ 139.113894956607908, 37.831214373829333 ], [ 139.113935302055779, 37.830922671161161 ], [ 139.113946854150214, 37.8306284182922 ], [ 139.113929501582732, 37.830334450453513 ], [ 139.113883411551456, 37.830043600129805 ], [ 139.113809028150257, 37.829758669767429 ], [ 139.113707068089639, 37.829482404771781 ], [ 139.113578513791083, 37.829217467054377 ], [ 139.113424603920976, 37.828966409384385 ], [ 139.113246821455675, 37.828731650791752 ], [ 139.113046879392471, 37.828515453259058 ], [ 139.112826704244299, 37.828319899926427 ], [ 139.112588417476985, 37.82814687501979 ], [ 139.112334315068381, 37.827998045695679 ], [ 139.112066845385527, 37.827874845977576 ], [ 139.111788585594013, 37.827778462938596 ], [ 139.072878585593998, 37.816406462938595 ] ] ] } }
]
}
