{
"type": "FeatureCollection",
"name": "school_districts_confirmed",
"crs": { "type": "name", "properties": { "name": "urn:ogc:def:crs:OGC:1.3:CRS84" } },
"features": [
{ "type": "Feature", "properties": { "area": "越後石山", "school_district_name": "越後石山小学校区(synthetic)" }, "geometry": { "type": "Polygon", "coordinates": [ [ [ 139.12, 37.9 ], [ 139.12, 37.92 ], [ 139.1, 37.92 ], [ 139.1, 37.9 ], [ 139.12, 37.9 ] ] ] } },
{ "type": "Feature", "properties": { "area": "亀田", "school_district_name": "亀田小学校区(synthetic)" }, "geometry": { "type": "Polygon", "coordinates": [ [ [ 139.14, 37.9 ], [ 139.14, 37.92 ], [ 139.12, 37.92 ], [ 139.12, 37.9 ], [ 139.14, 37.9 ] ] ] } },
{ "type": "Feature", "properties": { "area": "曽野木", "school_district_name": "曽野木小学校区(synthetic)" }, "geometry": { "type": "Polygon", "coordinates": [ [ [ 139.16, 37.9 ], [ 139.16, 37.92 ], [ 139.14, 37.92 ], [ 139.14, 37.9 ], [ 139.16, 37.9 ] ] ] } },
{ "type": "Feature", "properties": { "area": "荻川", "school_district_name": "荻川小学校区(synthetic)" }, "geometry": { "type": "Polygon", "coordinates": [ [ [ 139.12, 37.92 ], [ 139.12, 37.94 ], [ 139.1, 37.94 ], [ 139.1, 37.92 ], [ 139.12, 37.92 ] ] ] } },
{ "type": "Feature", "properties": { "area": "新津", "school_district_name": "新津小学校区(synthetic)" }, "geometry": { "type": "Polygon", "coordinates": [ [ [ 139.14, 37.92 ], [ 139.14, 37.94 ], [ 139.12, 37.94 ], [ 139.12, 37.92 ], [ 139.14, 37.92 ] ] ] } }
]
}
